[{"OBJECT_NAME":"HAWK-11B","OBJECT_ID":"2024-247C","EPOCH":"2026-03-09T10:44:06.809856","MEAN_MOTION":15.2884707,"ECCENTRICITY":0.00046902,"INCLINATION":45.0161,"RA_OF_ASC_NODE":115.761,"ARG_OF_PERICENTER":333.0326,"MEAN_ANOMALY":27.0314,"EPHEMERIS_TYPE":0,"CLASSIFICATION_TYPE":"U","NORAD_CAT_ID":62379,"ELEMENT_SET_NO":999,"REV_AT_EPOCH":6773,"BSTAR":0.00032841927,"MEAN_MOTION_DOT":9.093e-5,"MEAN_MOTION_DDOT":0},{"OBJECT_NAME":"STARLINK-34616","OBJECT_ID":"2025-253B","EPOCH":"2026-03-09T17:17:06.390240","MEAN_MOTION":15.27592386,"ECCENTRICITY":0.00011733,"INCLINATION":43.0023,"RA_OF_ASC_NODE":211.9475,"ARG_OF_PERICENTER":258.2993,"MEAN_ANOMALY":101.7727,"EPHEMERIS_TYPE":0,"CLASSIFICATION_TYPE":"U","NORAD_CAT_ID":66320,"ELEMENT_SET_NO":999,"REV_AT_EPOCH":2033,"BSTAR":0.0014923144,"MEAN_MOTION_DOT":0.00041047,"MEAN_MOTION_DDOT":0}]
